{
  "type": "FeatureCollection",
  "features": [
    {
      "type": "Feature",
      "properties": {
        "norad_id": 38091,
        "name": "BEIDOU-2 G5 (C05)",
        "group": "gnss",
        "lat": 1.5474117312844222,
        "lon": 99.73226095181688,
        "alt_km": 35837.39508126723,
        "timestamp": "2025-12-21T20:41:08.207025+00:00",
        "meta_object_name": "BEIDOU-2 G5 (C05)",
        "meta_object_id": "2012-008A",
        "meta_epoch": "2025-12-19T16:03:31.750272",
        "meta_mean_motion": 1.00268606,
        "meta_eccentricity": 0.0012969,
        "meta_inclination": 3.1258,
        "meta_ra_of_asc_node": 70.6861,
        "meta_arg_of_pericenter": 231.3522,
        "meta_mean_anomaly": 86.1393,
        "meta_ephemeris_type": 0,
        "meta_classification_type": "U",
        "meta_norad_cat_id": 38091,
        "meta_element_set_no": 999,
        "meta_rev_at_epoch": 5056,
        "meta_bstar": 0,
        "meta_mean_motion_dot": 7.9e-07,
        "meta_mean_motion_ddot": 0,
        "tle_line1": "1 38091U 12008A   25353.66911748  .00000079  00000+0  00000+0 0  9996",
        "tle_line2": "2 38091   3.1258  70.6861 0012969 231.3522  86.1393  1.00268606 50560"
      },
      "geometry": {
        "type": "Point",
        "coordinates": [
          99.73226095181688,
          1.5474117312844222
        ]
      }
    },
    {
      "type": "Feature",
      "properties": {
        "norad_id": 38250,
        "name": "BEIDOU-2 M3 (C11)",
        "group": "gnss",
        "lat": -55.85915327211498,
        "lon": -135.26908795825867,
        "alt_km": 21466.849987858786,
        "timestamp": "2025-12-21T20:41:08.207036+00:00",
        "meta_object_name": "BEIDOU-2 M3 (C11)",
        "meta_object_id": "2012-018A",
        "meta_epoch": "2025-12-20T22:02:43.406880",
        "meta_mean_motion": 1.86230123,
        "meta_eccentricity": 0.00241142,
        "meta_inclination": 55.9133,
        "meta_ra_of_asc_node": 310.8827,
        "meta_arg_of_pericenter": 275.2065,
        "meta_mean_anomaly": 84.51,
        "meta_ephemeris_type": 0,
        "meta_classification_type": "U",
        "meta_norad_cat_id": 38250,
        "meta_element_set_no": 999,
        "meta_rev_at_epoch": 9262,
        "meta_bstar": 0,
        "meta_mean_motion_dot": -6.6e-07,
        "meta_mean_motion_ddot": 0,
        "tle_line1": "1 38250U 12018A   25354.91855795 -.00000066  00000+0  00000+0 0  9999",
        "tle_line2": "2 38250  55.9133 310.8827 0024114 275.2065  84.5100  1.86230123 92627"
      },
      "geometry": {
        "type": "Point",
        "coordinates": [
          -135.26908795825867,
          -55.85915327211498
        ]
      }
    },
    {
      "type": "Feature",
      "properties": {
        "norad_id": 38251,
        "name": "BEIDOU-2 M4 (C12)",
        "group": "gnss",
        "lat": -33.653508601383535,
        "lon": -76.81936739558758,
        "alt_km": 21499.1148465966,
        "timestamp": "2025-12-21T20:41:08.207047+00:00",
        "meta_object_name": "BEIDOU-2 M4 (C12)",
        "meta_object_id": "2012-018B",
        "meta_epoch": "2025-12-20T20:24:53.726112",
        "meta_mean_motion": 1.86229788,
        "meta_eccentricity": 0.00153189,
        "meta_inclination": 55.8144,
        "meta_ra_of_asc_node": 310.113,
        "meta_arg_of_pericenter": 278.7848,
        "meta_mean_anomaly": 81.0336,
        "meta_ephemeris_type": 0,
        "meta_classification_type": "U",
        "meta_norad_cat_id": 38251,
        "meta_element_set_no": 999,
        "meta_rev_at_epoch": 9262,
        "meta_bstar": 0,
        "meta_mean_motion_dot": -6.6e-07,
        "meta_mean_motion_ddot": 0,
        "tle_line1": "1 38251U 12018B   25354.85062183 -.00000066  00000+0  00000+0 0  9994",
        "tle_line2": "2 38251  55.8144 310.1130 0015318 278.7848  81.0336  1.86229788 92620"
      },
      "geometry": {
        "type": "Point",
        "coordinates": [
          -76.81936739558758,
          -33.653508601383535
        ]
      }
    },
    {
      "type": "Feature",
      "properties": {
        "norad_id": 38652,
        "name": "SES-5 (EGNOS/PRN 136)",
        "group": "gnss",
        "lat": 0.07133310119382709,
        "lon": 45.94821786875983,
        "alt_km": 35791.32708439102,
        "timestamp": "2025-12-21T20:41:08.207058+00:00",
        "meta_object_name": "SES-5 (EGNOS/PRN 136)",
        "meta_object_id": "2012-036A",
        "meta_epoch": "2025-12-21T13:13:17.616576",
        "meta_mean_motion": 1.00272732,
        "meta_eccentricity": 0.0001865,
        "meta_inclination": 0.0577,
        "meta_ra_of_asc_node": 305.1377,
        "meta_arg_of_pericenter": 326.3264,
        "meta_mean_anomaly": 22.2085,
        "meta_ephemeris_type": 0,
        "meta_classification_type": "U",
        "meta_norad_cat_id": 38652,
        "meta_element_set_no": 999,
        "meta_rev_at_epoch": 4267,
        "meta_bstar": 0,
        "meta_mean_motion_dot": 5.7e-07,
        "meta_mean_motion_ddot": 0,
        "tle_line1": "1 38652U 12036A   25355.55089834  .00000057  00000+0  00000+0 0  9998",
        "tle_line2": "2 38652   0.0577 305.1377 0001865 326.3264  22.2085  1.00272732 42679"
      },
      "geometry": {
        "type": "Point",
        "coordinates": [
          45.94821786875983,
          0.07133310119382709
        ]
      }
    },
    {
      "type": "Feature",
      "properties": {
        "norad_id": 38775,
        "name": "BEIDOU-2 M6 (C14)",
        "group": "gnss",
        "lat": 23.1133764316139,
        "lon": -127.68500473541239,
        "alt_km": 21556.36623721941,
        "timestamp": "2025-12-21T20:41:08.207068+00:00",
        "meta_object_name": "BEIDOU-2 M6 (C14)",
        "meta_object_id": "2012-050B",
        "meta_epoch": "2025-12-21T02:21:46.465344",
        "meta_mean_motion": 1.86230924,
        "meta_eccentricity": 0.00113708,
        "meta_inclination": 56.3853,
        "meta_ra_of_asc_node": 68.7901,
        "meta_arg_of_pericenter": 343.4825,
        "meta_mean_anomaly": 16.5255,
        "meta_ephemeris_type": 0,
        "meta_classification_type": "U",
        "meta_norad_cat_id": 38775,
        "meta_element_set_no": 999,
        "meta_rev_at_epoch": 8999,
        "meta_bstar": 0,
        "meta_mean_motion_dot": -3.7e-07,
        "meta_mean_motion_ddot": 0,
        "tle_line1": "1 38775U 12050B   25355.09845446 -.00000037  00000+0  00000+0 0  9997",
        "tle_line2": "2 38775  56.3853  68.7901 0011370 343.4825  16.5255  1.86230924 89998"
      },
      "geometry": {
        "type": "Point",
        "coordinates": [
          -127.68500473541239,
          23.1133764316139
        ]
      }
    },
    {
      "type": "Feature",
      "properties": {
        "norad_id": 38779,
        "name": "GSAT-10 (GAGAN/PRN 128)",
        "group": "gnss",
        "lat": -0.019261451283762186,
        "lon": 123.98349636261275,
        "alt_km": 35775.9530916263,
        "timestamp": "2025-12-21T20:41:08.207079+00:00",
        "meta_object_name": "GSAT-10 (GAGAN/PRN 128)",
        "meta_object_id": "2012-051B",
        "meta_epoch": "2025-12-21T11:52:47.824608",
        "meta_mean_motion": 1.00272004,
        "meta_eccentricity": 0.00023887,
        "meta_inclination": 0.0709,
        "meta_ra_of_asc_node": 264.1121,
        "meta_arg_of_pericenter": 218.8563,
        "meta_mean_anomaly": 228.5757,
        "meta_ephemeris_type": 0,
        "meta_classification_type": "U",
        "meta_norad_cat_id": 38779,
        "meta_element_set_no": 999,
        "meta_rev_at_epoch": 4831,
        "meta_bstar": 0,
        "meta_mean_motion_dot": -1.43e-06,
        "meta_mean_motion_ddot": 0,
        "tle_line1": "1 38779U 12051B   25355.49499797 -.00000143  00000+0  00000+0 0  9998",
        "tle_line2": "2 38779   0.0709 264.1121 0002388 218.8563 228.5757  1.00272004 48311"
      },
      "geometry": {
        "type": "Point",
        "coordinates": [
          123.98349636261275,
          -0.019261451283762186
        ]
      }
    },
    {
      "type": "Feature",
      "properties": {
        "norad_id": 38833,
        "name": "GPS BIIF-3  (PRN 24)",
        "group": "gnss",
        "lat": 21.36118124740081,
        "lon": 167.65043182470595,
        "alt_km": 19804.521914661847,
        "timestamp": "2025-12-21T20:41:08.207092+00:00",
        "meta_object_name": "GPS BIIF-3  (PRN 24)",
        "meta_object_id": "2012-053A",
        "meta_epoch": "2025-12-21T07:50:41.138592",
        "meta_mean_motion": 2.00565076,
        "meta_eccentricity": 0.0176016,
        "meta_inclination": 53.5593,
        "meta_ra_of_asc_node": 150.887,
        "meta_arg_of_pericenter": 64.1244,
        "meta_mean_anomaly": 297.6553,
        "meta_ephemeris_type": 0,
        "meta_classification_type": "U",
        "meta_norad_cat_id": 38833,
        "meta_element_set_no": 999,
        "meta_rev_at_epoch": 9587,
        "meta_bstar": 0,
        "meta_mean_motion_dot": 6e-07,
        "meta_mean_motion_ddot": 0,
        "tle_line1": "1 38833U 12053A   25355.32686503  .00000060  00000+0  00000+0 0  9993",
        "tle_line2": "2 38833  53.5593 150.8870 0176016  64.1244 297.6553  2.00565076 95875"
      },
      "geometry": {
        "type": "Point",
        "coordinates": [
          167.65043182470595,
          21.36118124740081
        ]
      }
    }
  ]
}